GLOBALSTAR M084         
1 38040U 11080A   23316.50443824 -.00000085  00000+0  10501-3 0  9993
2 38040  52.0030  22.3731 0000546 143.5347 230.5203 12.62267527549088
GLOBALSTAR M080         
1 38041U 11080B   23316.47779559 -.00000084  00000+0  10906-3 0  9995
2 38041  52.0086  23.8562 0000760 143.5874 229.4302 12.62266028549207
GLOBALSTAR M082         
1 38042U 11080C   23316.84253454 -.00000084  00000+0  10974-3 0  9993
2 38042  52.0094 338.1306 0000708  19.8435 152.6032 12.62267886550128
GLOBALSTAR M092         
1 38043U 11080D   23316.62250229 -.00000124  00000+0 -11266-3 0  9998
2 38043  52.0091  69.1408 0000602 150.0198 222.8176 12.62262518548591
GLOBALSTAR M090         
1 38044U 11080E   23316.35886843 -.00000080  00000+0  13480-3 0  9996
2 38044  51.9902 334.1613 0000507  49.4193 324.9638 12.62263374550012
GLOBALSTAR M086         
1 38045U 11080F   23316.81593750 -.00000082  00000+0  12293-3 0  9993
2 38045  51.9914 333.2768 0001261 100.0027  71.3451 12.62264233550117
GLOBALSTAR M097         
1 39072U 13005A   23316.48799885 -.00000100  00000+0  18725-4 0  9991
2 39072  52.0048 248.2295 0001030  59.4865 300.6104 12.62272479497304
GLOBALSTAR M093         
1 39073U 13005B   23316.54069933 -.00000090  00000+0  79106-4 0  9991
2 39073  51.9810 242.3048 0001299  61.3764 298.7233 12.62268648497187
